GLOBALSTAR M057         
1 25943U 99058A   25271.75386338 -.00000084  00000+0  79107-4 0  9994
2 25943  51.9995  54.2784 0002237 209.4731 150.5992 12.24827136179625
GLOBALSTAR M059         
1 25944U 99058B   25271.56606602 -.00000030  00000+0  69858-3 0  9995
2 25944  52.0014 287.5013 0000399 131.2405  18.2500 11.99988469586459
GLOBALSTAR M056         
1 25945U 99058C   25271.48647252 -.00000080  00000+0  81615-4 0  9994
2 25945  51.9959 287.0271 0001067  34.2148 119.2741 12.04779353175074
GLOBALSTAR M031         
1 25946U 99058D   25271.90031757 -.00000066  00000+0  24374-3 0  9991
2 25946  51.9951 172.0127 0002032  41.4507  38.1941 12.16039915177161
GLOBALSTAR M039         
1 25961U 99062A   25271.49485217 -.00000060  00000+0  24284-3 0  9995
2 25961  51.9857 314.0620 0002524 209.6360 150.4364 12.62332960193263
GLOBALSTAR M034         
1 25962U 99062B   25271.95531891 -.00000063  00000+0  27899-3 0  9995
2 25962  51.9851 101.6480 0013320 235.3554 275.0789 11.79448456150633
GLOBALSTAR M029         
1 25963U 99062C   25271.89913596 -.00000060  00000+0  32041-3 0  9997
2 25963  51.9794 174.5448 0002572 339.5357  99.2063 11.99901405181576
GLOBALSTAR M061         
1 25964U 99062D   25271.51840428 -.00000062  00000+0  30672-3 0  9990
2 25964  51.9789 288.1945 0005950 158.1001   2.5236 11.76777102133340
